{"type": "FeatureCollection", "features": [{"type": "Feature", "properties": {"norad_id": 66316, "name": "QPS-SAR-14 (YACHIHOKO-I)", "group": "last-30-days", "lat": -39.592273089645246, "lon": 46.723385641164114, "alt_km": 582.1879447823012, "timestamp": "2025-12-05T18:53:12.094509+00:00", "meta": {"OBJECT_NAME": "QPS-SAR-14 (YACHIHOKO-I)", "OBJECT_ID": "2025-252A", "EPOCH": "2025-12-04T15:59:51.959904", "MEAN_MOTION": 14.97574412, "ECCENTRICITY": 0.0006845, "INCLINATION": 42.0036, "RA_OF_ASC_NODE": 119.6506, "ARG_OF_PERICENTER": 95.5659, "MEAN_ANOMALY": 264.5947, "EPHEMERIS_TYPE": 0, "CLASSIFICATION_TYPE": "U", "NORAD_CAT_ID": 66316, "ELEMENT_SET_NO": 999, "REV_AT_EPOCH": 432, "BSTAR": 0.0011222, "MEAN_MOTION_DOT": 0.00013169, "MEAN_MOTION_DDOT": 0}, "tle": {"line1": "1 66316U 25252A   25338.66657361  .00013169  00000+0  11222-2 0  9998", "line2": "2 66316  42.0036 119.6506 0006845  95.5659 264.5947 14.97574412  4329"}}, "geometry": {"type": "Point", "coordinates": [46.723385641164114, -39.592273089645246]}}, {"type": "Feature", "properties": {"norad_id": 66317, "name": "ELECTRON R/B", "group": "last-30-days", "lat": 28.975572764356674, "lon": 129.87614809245127, "alt_km": 166.83921424678647, "timestamp": "2025-12-05T18:53:12.094554+00:00", "meta": {"OBJECT_NAME": "ELECTRON R/B", "OBJECT_ID": "2025-252B", "EPOCH": "2025-12-04T16:09:30.388032", "MEAN_MOTION": 16.20080139, "ECCENTRICITY": 0.0062158, "INCLINATION": 41.9851, "RA_OF_ASC_NODE": 99.2617, "ARG_OF_PERICENTER": 80.1526, "MEAN_ANOMALY": 280.6353, "EPHEMERIS_TYPE": 0, "CLASSIFICATION_TYPE": "U", "NORAD_CAT_ID": 66317, "ELEMENT_SET_NO": 999, "REV_AT_EPOCH": 455, "BSTAR": 0.0015552484, "MEAN_MOTION_DOT": 0.04912432, "MEAN_MOTION_DDOT": 8.315701e-06}, "tle": {"line1": "1 66317U 25252B   25338.67326838  .04912432  83157-5  15552-2 0  9997", "line2": "2 66317  41.9851  99.2617 0062158  80.1526 280.6353 16.20080139  4552"}}, "geometry": {"type": "Point", "coordinates": [129.87614809245127, 28.975572764356674]}}, {"type": "Feature", "properties": {"norad_id": 66319, "name": "STARLINK-35442", "group": "last-30-days", "lat": 30.747732333653293, "lon": 166.27370517218165, "alt_km": 439.4527038040678, "timestamp": "2025-12-05T18:53:12.094571+00:00", "meta": {"OBJECT_NAME": "STARLINK-35442", "OBJECT_ID": "2025-253A", "EPOCH": "2025-12-04T11:12:12.627648", "MEAN_MOTION": 15.40680264, "ECCENTRICITY": 0.0001636, "INCLINATION": 43.0027, "RA_OF_ASC_NODE": 33.5509, "ARG_OF_PERICENTER": 271.7121, "MEAN_ANOMALY": 88.3548, "EPHEMERIS_TYPE": 0, "CLASSIFICATION_TYPE": "U", "NORAD_CAT_ID": 66319, "ELEMENT_SET_NO": 999, "REV_AT_EPOCH": 564, "BSTAR": 0.002125, "MEAN_MOTION_DOT": 0.0008945, "MEAN_MOTION_DDOT": 0}, "tle": {"line1": "1 66319U 25253A   25338.46681282  .00089450  00000+0  21250-2 0  9997", "line2": "2 66319  43.0027  33.5509 0001636 271.7121  88.3548 15.40680264  5642"}}, "geometry": {"type": "Point", "coordinates": [166.27370517218165, 30.747732333653293]}}, {"type": "Feature", "properties": {"norad_id": 66320, "name": "STARLINK-34616", "group": "last-30-days", "lat": -34.02609365531338, "lon": -20.906737094850797, "alt_km": 447.5157772530001, "timestamp": "2025-12-05T18:53:12.094585+00:00", "meta": {"OBJECT_NAME": "STARLINK-34616", "OBJECT_ID": "2025-253B", "EPOCH": "2025-12-05T06:00:02.000160", "MEAN_MOTION": 15.41575778, "ECCENTRICITY": 0.00014037, "INCLINATION": 43.0007, "RA_OF_ASC_NODE": 28.6183, "ARG_OF_PERICENTER": 285.5578, "MEAN_ANOMALY": 277.4456, "EPHEMERIS_TYPE": 0, "CLASSIFICATION_TYPE": "U", "NORAD_CAT_ID": 66320, "ELEMENT_SET_NO": 999, "REV_AT_EPOCH": 592, "BSTAR": -0.031992193, "MEAN_MOTION_DOT": -0.01246124, "MEAN_MOTION_DDOT": 0}, "tle": {"line1": "1 66320U 25253B   25339.25002315 -.01246124  00000+0 -31992-1 0  9990", "line2": "2 66320  43.0007  28.6183 0001403 285.5578 277.4456 15.41575778  5920"}}, "geometry": {"type": "Point", "coordinates": [-20.906737094850797, -34.02609365531338]}}, {"type": "Feature", "properties": {"norad_id": 66321, "name": "STARLINK-34615", "group": "last-30-days", "lat": -24.50533604037054, "lon": -4.687509357924604, "alt_km": 416.9804203947251, "timestamp": "2025-12-05T18:53:12.094597+00:00", "meta": {"OBJECT_NAME": "STARLINK-34615", "OBJECT_ID": "2025-253C", "EPOCH": "2025-12-05T06:00:02.000160", "MEAN_MOTION": 15.50599059, "ECCENTRICITY": 0.00013383, "INCLINATION": 43.0006, "RA_OF_ASC_NODE": 27.7395, "ARG_OF_PERICENTER": 268.1382, "MEAN_ANOMALY": 293.7592, "EPHEMERIS_TYPE": 0, "CLASSIFICATION_TYPE": "U", "NORAD_CAT_ID": 66321, "ELEMENT_SET_NO": 999, "REV_AT_EPOCH": 577, "BSTAR": -0.0014680735, "MEAN_MOTION_DOT": -0.00085591, "MEAN_MOTION_DDOT": 0}, "tle": {"line1": "1 66321U 25253C   25339.25002315 -.00085591  00000+0 -14681-2 0  9996", "line2": "2 66321  43.0006  27.7395 0001338 268.1382 293.7592 15.50599059  5775"}}, "geometry": {"type": "Point", "coordinates": [-4.687509357924604, -24.50533604037054]}}, {"type": "Feature", "properties": {"norad_id": 66322, "name": "STARLINK-35292", "group": "last-30-days", "lat": 7.9883633532445595, "lon": -162.80873626225426, "alt_km": 442.7649382542995, "timestamp": "2025-12-05T18:53:12.094631+00:00", "meta": {"OBJECT_NAME": "STARLINK-35292", "OBJECT_ID": "2025-253D", "EPOCH": "2025-12-05T07:16:08.273856", "MEAN_MOTION": 15.40641042, "ECCENTRICITY": 0.00012102, "INCLINATION": 43.0003, "RA_OF_ASC_NODE": 28.6428, "ARG_OF_PERICENTER": 268.8, "MEAN_ANOMALY": 91.2718, "EPHEMERIS_TYPE": 0, "CLASSIFICATION_TYPE": "U", "NORAD_CAT_ID": 66322, "ELEMENT_SET_NO": 999, "REV_AT_EPOCH": 577, "BSTAR": 0.0026767576, "MEAN_MOTION_DOT": 0.00112959, "MEAN_MOTION_DDOT": 0}, "tle": {"line1": "1 66322U 25253D   25339.30287354  .00112959  00000+0  26768-2 0  9997", "line2": "2 66322  43.0003  28.6428 0001210 268.8000  91.2718 15.40641042  5773"}}, "geometry": {"type": "Point", "coordinates": [-162.80873626225426, 7.9883633532445595]}}, {"type": "Feature", "properties": {"norad_id": 66323, "name": "STARLINK-35309", "group": "last-30-days", "lat": 7.779983670113338, "lon": 33.788384922197444, "alt_km": 412.10344819648526, "timestamp": "2025-12-05T18:53:12.094645+00:00", "meta": {"OBJECT_NAME": "STARLINK-35309", "OBJECT_ID": "2025-253E", "EPOCH": "2025-12-04T11:55:34.293216", "MEAN_MOTION": 15.50737349, "ECCENTRICITY": 0.0003796, "INCLINATION": 43.0008, "RA_OF_ASC_NODE": 32.9093, "ARG_OF_PERICENTER": 268.5168, "MEAN_ANOMALY": 91.5257, "EPHEMERIS_TYPE": 0, "CLASSIFICATION_TYPE": "U", "NORAD_CAT_ID": 66323, "ELEMENT_SET_NO": 999, "REV_AT_EPOCH": 565, "BSTAR": 0.0030261, "MEAN_MOTION_DOT": 0.00182433, "MEAN_MOTION_DDOT": 0}, "tle": {"line1": "1 66323U 25253E   25338.49692469  .00182433  00000+0  30261-2 0  9991", "line2": "2 66323  43.0008  32.9093 0003796 268.5168  91.5257 15.50737349  5653"}}, "geometry": {"type": "Point", "coordinates": [33.788384922197444, 7.779983670113338]}}, {"type": "Feature", "properties": {"norad_id": 66324, "name": "STARLINK-35506", "group": "last-30-days", "lat": 1.6803978557318182, "lon": 27.179666763766477, "alt_km": 414.0157670817907, "timestamp": "2025-12-05T18:53:12.094659+00:00", "meta": {"OBJECT_NAME": "STARLINK-35506", "OBJECT_ID": "2025-253F", "EPOCH": "2025-12-03T12:46:12.432576", "MEAN_MOTION": 15.5059009, "ECCENTRICITY": 8.705e-05, "INCLINATION": 43.0006, "RA_OF_ASC_NODE": 38.5692, "ARG_OF_PERICENTER": 276.2742, "MEAN_ANOMALY": 83.8019, "EPHEMERIS_TYPE": 0, "CLASSIFICATION_TYPE": "U", "NORAD_CAT_ID": 66324, "ELEMENT_SET_NO": 999, "REV_AT_EPOCH": 550, "BSTAR": 0.00045167229, "MEAN_MOTION_DOT": 0.00026255, "MEAN_MOTION_DDOT": 0}, "tle": {"line1": "1 66324U 25253F   25337.53208834  .00026255  00000+0  45167-3 0  9996", "line2": "2 66324  43.0006  38.5692 0000870 276.2742  83.8019 15.50590090  5507"}}, "geometry": {"type": "Point", "coordinates": [27.179666763766477, 1.6803978557318182]}}, {"type": "Feature", "properties": {"norad_id": 66325, "name": "STARLINK-35504", "group": "last-30-days", "lat": -41.252628530630695, "lon": -84.1064390872606, "alt_km": 446.5205739698613, "timestamp": "2025-12-05T18:53:12.094670+00:00", "meta": {"OBJECT_NAME": "STARLINK-35504", "OBJECT_ID": "2025-253G", "EPOCH": "2025-12-05T06:00:02.000160", "MEAN_MOTION": 15.40656386, "ECCENTRICITY": 0.00012203, "INCLINATION": 43.0004, "RA_OF_ASC_NODE": 28.737, "ARG_OF_PERICENTER": 253.1561, "MEAN_ANOMALY": 260.557, "EPHEMERIS_TYPE": 0, "CLASSIFICATION_TYPE": "U", "NORAD_CAT_ID": 66325, "ELEMENT_SET_NO": 999, "REV_AT_EPOCH": 572, "BSTAR": 0.0009792853, "MEAN_MOTION_DOT": 0.00040763, "MEAN_MOTION_DDOT": 0}, "tle": {"line1": "1 66325U 25253G   25339.25002315  .00040763  00000+0  97929-3 0  9997", "line2": "2 66325  43.0004  28.7370 0001220 253.1561 260.5570 15.40656386  5723"}}, "geometry": {"type": "Point", "coordinates": [-84.1064390872606, -41.252628530630695]}}, {"type": "Feature", "properties": {"norad_id": 66326, "name": "STARLINK-35479", "group": "last-30-days", "lat": 8.150778759931027, "lon": 34.19571681929275, "alt_km": 412.72642397008804, "timestamp": "2025-12-05T18:53:12.094681+00:00", "meta": {"OBJECT_NAME": "STARLINK-35479", "OBJECT_ID": "2025-253H", "EPOCH": "2025-12-04T15:00:38.013408", "MEAN_MOTION": 15.50615042, "ECCENTRICITY": 0.0001415, "INCLINATION": 43.0005, "RA_OF_ASC_NODE": 32.1514, "ARG_OF_PERICENTER": 287.7439, "MEAN_ANOMALY": 72.3267, "EPHEMERIS_TYPE": 0, "CLASSIFICATION_TYPE": "U", "NORAD_CAT_ID": 66326, "ELEMENT_SET_NO": 999, "REV_AT_EPOCH": 567, "BSTAR": 0.001591, "MEAN_MOTION_DOT": 0.00094247, "MEAN_MOTION_DDOT": 0}, "tle": {"line1": "1 66326U 25253H   25338.62543997  .00094247  00000+0  15910-2 0  9999", "line2": "2 66326  43.0005  32.1514 0001415 287.7439  72.3267 15.50615042  5678"}}, "geometry": {"type": "Point", "coordinates": [34.19571681929275, 8.150778759931027]}}]}